line1,line2,validFromUtcTime
1 00000U 00000E   26001.00000000  .00000000  00000-0  27772-4 0    01,2 00000  89.0018   0.3311 0010162 270.6274 239.5177 13.55338319    09,2026-01-01T00:00:00Z
1 00000U 00000E   26002.00000000  .00000000  00000-0  27772-4 0    02,2 00000  89.0018   0.2296 0010162 267.7162  78.7341 13.55338357    01,2026-01-02T00:00:00Z
